start=new Date('2023-05-20T00:00:00.000Z').valueOf();
sats=[{"OBJECT_ID":"2020-019N","OBJECT_NAME":"STARLINK-1288","TIME_SYSTEM":"UTC","PERIAPSIS":"546.353","MEAN_MOTION_DOT":"0.00002566","SITE":"AFETR","CLASSIFICATION_TYPE":"U","ELEMENT_SET_NO":"999","INCLINATION":"53.0546","NORAD_CAT_ID":"45372","BSTAR":"0.00019105000000","DECAY_DATE":null,"OBJECT_TYPE":"PAYLOAD","MEAN_ELEMENT_THEORY":"SGP4","PERIOD":"95.592","RA_OF_ASC_NODE":"90.5469","MEAN_MOTION":"15.06403499","MEAN_MOTION_DDOT":"0.0000000000000","COUNTRY_CODE":"US","CENTER_NAME":"EARTH","ARG_OF_PERICENTER":"98.6517","EPHEMERIS_TYPE":"0","GP_ID":"232157495","TLE_LINE1":"1 45372U 20019N   23139.12736603  .00002566  00000-0  19105-3 0  9997","SEMIMAJOR_AXIS":"6925.338","LAUNCH_DATE":"2020-03-18","EPOCH":"2023-05-19T03:03:24.424992","TLE_LINE2":"2 45372  53.0546  90.5469 0001227  98.6517 261.4611 15.06403499175158","FILE":"3912278","REV_AT_EPOCH":"17515","APOAPSIS":"548.053","MEAN_ANOMALY":"261.4611","ECCENTRICITY":"0.00012270","RCS_SIZE":"LARGE","REF_FRAME":"TEME"},{"OBJECT_NAME":"STARLINK-1295","OBJECT_ID":"2020-019P","MEAN_MOTION_DOT":"0.00000040","PERIAPSIS":"546.333","TIME_SYSTEM":"UTC","SITE":"AFETR","CLASSIFICATION_TYPE":"U","ELEMENT_SET_NO":"999","INCLINATION":"53.0549","NORAD_CAT_ID":"45373","DECAY_DATE":null,"OBJECT_TYPE":"PAYLOAD","MEAN_ELEMENT_THEORY":"SGP4","BSTAR":"0.00002157000000","RA_OF_ASC_NODE":"87.3534","PERIOD":"95.593","COUNTRY_CODE":"US","MEAN_MOTION_DDOT":"0.0000000000000","MEAN_MOTION":"15.06389803","TLE_LINE1":"1 45373U 20019P   23139.83877265  .00000040  00000-0  21570-4 0  9991","EPHEMERIS_TYPE":"0","GP_ID":"232157747","CENTER_NAME":"EARTH","ARG_OF_PERICENTER":"97.2710","LAUNCH_DATE":"2020-03-18","EPOCH":"2023-05-19T20:07:49.956960","SEMIMAJOR_AXIS":"6925.380","TLE_LINE2":"2 45373  53.0549  87.3534 0001317  97.2710 262.8429 15.06389803175265","FILE":"3912278","ECCENTRICITY":"0.00013170","APOAPSIS":"548.157","MEAN_ANOMALY":"262.8429","REV_AT_EPOCH":"17526","REF_FRAME":"TEME","RCS_SIZE":"LARGE"},{"REF_FRAME":"TEME","RCS_SIZE":"LARGE","ECCENTRICITY":"0.00012140","REV_AT_EPOCH":"17517","MEAN_ANOMALY":"266.4734","APOAPSIS":"548.020","FILE":"3912278","TLE_LINE2":"2 45374  53.0553  90.0465 0001214  93.6394 266.4734 15.06411034175170","SEMIMAJOR_AXIS":"6925.315","LAUNCH_DATE":"2020-03-18","EPOCH":"2023-05-19T05:42:37.821600","EPHEMERIS_TYPE":"0","GP_ID":"232158468","TLE_LINE1":"1 45374U 20019Q   23139.23793775  .00001017  00000-0  87130-4 0  9998","ARG_OF_PERICENTER":"93.6394","CENTER_NAME":"EARTH","MEAN_MOTION_DDOT":"0.0000000000000","COUNTRY_CODE":"US","MEAN_MOTION":"15.06411034","PERIOD":"95.591","RA_OF_ASC_NODE":"90.0465","DECAY_DATE":null,"MEAN_ELEMENT_THEORY":"SGP4","OBJECT_TYPE":"PAYLOAD","BSTAR":"0.00008713000000","NORAD_CAT_ID":"45374","INCLINATION":"53.0553","ELEMENT_SET_NO":"999","CLASSIFICATION_TYPE":"U","SITE":"AFETR","MEAN_MOTION_DOT":"0.00001017","TIME_SYSTEM":"UTC","PERIAPSIS":"546.339","OBJECT_NAME":"STARLINK-1300","OBJECT_ID":"2020-019Q"},{"OBJECT_ID":"2020-019R","OBJECT_NAME":"STARLINK-1302","MEAN_MOTION_DOT":"0.00004517","PERIAPSIS":"546.295","TIME_SYSTEM":"UTC","SITE":"AFETR","CLASSIFICATION_TYPE":"U","ELEMENT_SET_NO":"999","INCLINATION":"53.0541","NORAD_CAT_ID":"45375","MEAN_ELEMENT_THEORY":"SGP4","DECAY_DATE":null,"OBJECT_TYPE":"PAYLOAD","BSTAR":"0.00032184000000","RA_OF_ASC_NODE":"89.9835","PERIOD":"95.592","COUNTRY_CODE":"US","MEAN_MOTION_DDOT":"0.0000000000000","MEAN_MOTION":"15.06408230","TLE_LINE1":"1 45375U 20019R   23139.25268572  .00004517  00000-0  32184-3 0  9999","GP_ID":"232157246","EPHEMERIS_TYPE":"0","CENTER_NAME":"EARTH","ARG_OF_PERICENTER":"95.2121","SEMIMAJOR_AXIS":"6925.323","LAUNCH_DATE":"2020-03-18","EPOCH":"2023-05-19T06:03:52.046208","TLE_LINE2":"2 45375  53.0541  89.9835 0001290  95.2121 264.9015 15.06408230175175","FILE":"3912278","ECCENTRICITY":"0.00012900","MEAN_ANOMALY":"264.9015","APOAPSIS":"548.082","REV_AT_EPOCH":"17517","REF_FRAME":"TEME","RCS_SIZE":"LARGE"},{"FILE":"3912278","TLE_LINE2":"2 45376  53.0543  89.8983 0001190  90.5444 269.5681 15.06413165175179","REF_FRAME":"TEME","RCS_SIZE":"LARGE","ECCENTRICITY":"0.00011900","APOAPSIS":"547.997","MEAN_ANOMALY":"269.5681","REV_AT_EPOCH":"17517","COUNTRY_CODE":"US","MEAN_MOTION_DDOT":"0.0000000000000","MEAN_MOTION":"15.06413165","RA_OF_ASC_NODE":"89.8983","PERIOD":"95.591","EPOCH":"2023-05-19T06:30:24.388704","LAUNCH_DATE":"2020-03-18","SEMIMAJOR_AXIS":"6925.308","TLE_LINE1":"1 45376U 20019S   23139.27111561  .00003017  00000-0  22128-3 0  9998","EPHEMERIS_TYPE":"0","GP_ID":"232156997","CENTER_NAME":"EARTH","ARG_OF_PERICENTER":"90.5444","INCLINATION":"53.0543","ELEMENT_SET_NO":"999","DECAY_DATE":null,"OBJECT_TYPE":"PAYLOAD","MEAN_ELEMENT_THEORY":"SGP4","BSTAR":"0.00022128000000","NORAD_CAT_ID":"45376","MEAN_MOTION_DOT":"0.00003017","PERIAPSIS":"546.349","TIME_SYSTEM":"UTC","OBJECT_NAME":"STARLINK-1304","OBJECT_ID":"2020-019S","CLASSIFICATION_TYPE":"U","SITE":"AFETR"},{"ELEMENT_SET_NO":"999","INCLINATION":"53.0543","NORAD_CAT_ID":"45377","BSTAR":"0.00019355000000","DECAY_DATE":null,"MEAN_ELEMENT_THEORY":"SGP4","OBJECT_TYPE":"PAYLOAD","OBJECT_NAME":"STARLINK-1305","OBJECT_ID":"2020-019T","PERIAPSIS":"546.359","TIME_SYSTEM":"UTC","MEAN_MOTION_DOT":"0.00002604","SITE":"AFETR","CLASSIFICATION_TYPE":"U","TLE_LINE2":"2 45377  53.0543  89.7863 0001167  91.0465 269.0658 15.06414978175182","FILE":"3912278","MEAN_ANOMALY":"269.0658","APOAPSIS":"547.976","REV_AT_EPOCH":"17518","ECCENTRICITY":"0.00011670","RCS_SIZE":"LARGE","REF_FRAME":"TEME","RA_OF_ASC_NODE":"89.7863","PERIOD":"95.591","MEAN_MOTION":"15.06414978","COUNTRY_CODE":"US","MEAN_MOTION_DDOT":"0.0000000000000","ARG_OF_PERICENTER":"91.0465","CENTER_NAME":"EARTH","TLE_LINE1":"1 45377U 20019T   23139.29691445  .00002604  00000-0  19355-3 0  9994","EPHEMERIS_TYPE":"0","GP_ID":"232158246","LAUNCH_DATE":"2020-03-18","SEMIMAJOR_AXIS":"6925.303","EPOCH":"2023-05-19T07:07:33.408480"},{"OBJECT_ID":"2020-019U","OBJECT_NAME":"STARLINK-1310","MEAN_MOTION_DOT":"0.00008088","TIME_SYSTEM":"UTC","PERIAPSIS":"546.334","SITE":"AFETR","CLASSIFICATION_TYPE":"U","ELEMENT_SET_NO":"999","INCLINATION":"53.0545","NORAD_CAT_ID":"45378","DECAY_DATE":null,"MEAN_ELEMENT_THEORY":"SGP4","OBJECT_TYPE":"PAYLOAD","BSTAR":"0.00056108000000","PERIOD":"95.591","RA_OF_ASC_NODE":"90.7239","MEAN_MOTION_DDOT":"0.0000000000000","COUNTRY_CODE":"US","MEAN_MOTION":"15.06411413","GP_ID":"232157969","EPHEMERIS_TYPE":"0","TLE_LINE1":"1 45378U 20019U   23139.08682446  .00008088  00000-0  56108-3 0  9992","ARG_OF_PERICENTER":"89.9998","CENTER_NAME":"EARTH","LAUNCH_DATE":"2020-03-18","EPOCH":"2023-05-19T02:05:01.633344","SEMIMAJOR_AXIS":"6925.314","TLE_LINE2":"2 45378  53.0545  90.7239 0001220  89.9998 270.1130 15.06411413175157","FILE":"3912278","ECCENTRICITY":"0.00012200","REV_AT_EPOCH":"17515","APOAPSIS":"548.023","MEAN_ANOMALY":"270.1130","REF_FRAME":"TEME","RCS_SIZE":"LARGE"},{"ELEMENT_SET_NO":"999","INCLINATION":"53.0543","NORAD_CAT_ID":"45379","BSTAR":"0.00019706000000","DECAY_DATE":null,"MEAN_ELEMENT_THEORY":"SGP4","OBJECT_TYPE":"PAYLOAD","OBJECT_NAME":"STARLINK-1319","OBJECT_ID":"2020-019V","TIME_SYSTEM":"UTC","PERIAPSIS":"546.434","MEAN_MOTION_DOT":"0.00002656","SITE":"AFETR","CLASSIFICATION_TYPE":"U","TLE_LINE2":"2 45379  53.0543  90.7112 0001067  90.0125 270.0986 15.06413371175153","FILE":"3912278","REV_AT_EPOCH":"17515","MEAN_ANOMALY":"270.0986","APOAPSIS":"547.912","ECCENTRICITY":"0.00010670","RCS_SIZE":"LARGE","REF_FRAME":"TEME","PERIOD":"95.591","RA_OF_ASC_NODE":"90.7112","MEAN_MOTION":"15.06413371","MEAN_MOTION_DDOT":"0.0000000000000","COUNTRY_CODE":"US","CENTER_NAME":"EARTH","ARG_OF_PERICENTER":"90.0125","GP_ID":"232156747","EPHEMERIS_TYPE":"0","TLE_LINE1":"1 45379U 20019V   23139.09050152  .00002656  00000-0  19706-3 0  9995","LAUNCH_DATE":"2020-03-18","SEMIMAJOR_AXIS":"6925.308","EPOCH":"2023-05-19T02:10:19.331328"},{"FILE":"3912278","TLE_LINE2":"2 45380  53.0547  70.7181 0001136  99.4554 260.6563 15.06431655175420","RCS_SIZE":"LARGE","REF_FRAME":"TEME","APOAPSIS":"547.903","MEAN_ANOMALY":"260.6563","REV_AT_EPOCH":"17542","ECCENTRICITY":"0.00011360","MEAN_MOTION":"15.06431655","COUNTRY_CODE":"US","MEAN_MOTION_DDOT":"0.0000000000000","RA_OF_ASC_NODE":"70.7181","PERIOD":"95.590","SEMIMAJOR_AXIS":"6925.252","LAUNCH_DATE":"2020-03-18","EPOCH":"2023-05-19T02:07:40.251648","ARG_OF_PERICENTER":"99.4554","CENTER_NAME":"EARTH","TLE_LINE1":"1 45380U 20019W   23139.08866032  .00017731  00000-0  12052-2 0  9994","EPHEMERIS_TYPE":"0","GP_ID":"232157496","INCLINATION":"53.0547","ELEMENT_SET_NO":"999","BSTAR":"0.00120520000000","OBJECT_TYPE":"PAYLOAD","DECAY_DATE":null,"MEAN_ELEMENT_THEORY":"SGP4","NORAD_CAT_ID":"45380","PERIAPSIS":"546.330","TIME_SYSTEM":"UTC","MEAN_MOTION_DOT":"0.00017731","OBJECT_ID":"2020-019W","OBJECT_NAME":"STARLINK-1207","CLASSIFICATION_TYPE":"U","SITE":"AFETR"},{"MEAN_MOTION":"15.06428836","COUNTRY_CODE":"US","MEAN_MOTION_DDOT":"0.0000000000000","RA_OF_ASC_NODE":"70.0701","PERIOD":"95.590","EPOCH":"2023-05-19T05:34:40.084032","LAUNCH_DATE":"2020-03-18","SEMIMAJOR_AXIS":"6925.260","ARG_OF_PERICENTER":"92.0009","CENTER_NAME":"EARTH","TLE_LINE1":"1 45381U 20019X   23139.23240838  .00009337  00000-0  64437-3 0  9990","EPHEMERIS_TYPE":"0","GP_ID":"232157748","FILE":"3912278","TLE_LINE2":"2 45381  53.0553  70.0701 0001113  92.0009 268.1108 15.06428836175445","RCS_SIZE":"LARGE","REF_FRAME":"TEME","APOAPSIS":"547.896","MEAN_ANOMALY":"268.1108","REV_AT_EPOCH":"17544","ECCENTRICITY":"0.00011130","PERIAPSIS":"546.354","TIME_SYSTEM":"UTC","MEAN_MOTION_DOT":"0.00009337","OBJECT_ID":"2020-019X","OBJECT_NAME":"STARLINK-1258","CLASSIFICATION_TYPE":"U","SITE":"AFETR","INCLINATION":"53.0553","ELEMENT_SET_NO":"999","BSTAR":"0.00064437000000","OBJECT_TYPE":"PAYLOAD","DECAY_DATE":null,"MEAN_ELEMENT_THEORY":"SGP4","NORAD_CAT_ID":"45381"}];
